GLOBALSTAR M023         
1 25621U 99004A   25182.52060431 -.00000163  00000+0 -33163-3 0  9997
2 25621  52.0129   9.7954 0010161 152.6032 236.1560 12.62506760217546
GLOBALSTAR M040         
1 25622U 99004B   25182.05841019 -.00000059  00000+0  25220-3 0  9993
2 25622  51.9935  15.3790 0001706  75.4225  98.6735 12.62012141217306
GLOBALSTAR M036         
1 25623U 99004C   25182.28251385 -.00000062  00000+0  30643-3 0  9999
2 25623  51.9929 203.1701 0010955  79.4680   1.7045 11.86608271180650
GLOBALSTAR M038         
1 25624U 99004D   25182.06761801 -.00000086  00000+0  76028-4 0  9999
2 25624  51.9991  31.5978 0002711  80.4690  84.3997 12.32528682204089
GLOBALSTAR M022         
1 25649U 99012A   25182.64512057 -.00000091  00000+0 -55037-4 0  9990
2 25649  52.0027 251.5999 0002884 197.9780 329.6264 12.02501121178112
GLOBALSTAR M041         
1 25650U 99012B   25182.25066641 -.00000068  00000+0  22378-3 0  9996
2 25650  52.0001 134.5519 0001888 348.8303  11.2491 11.96681366179967
GLOBALSTAR M046         
1 25651U 99012C   25182.14233784 -.00000122  00000+0 -37017-3 0  9997
2 25651  52.0023 202.5904 0002182 278.6659 124.9293 12.09411701185359
GLOBALSTAR M037         
1 25652U 99012D   25182.61049037 -.00000049  00000+0  30688-3 0  9990
2 25652  51.9986 140.1361 0001697 225.8756 304.8498 12.62447789213095
